{"type": "FeatureCollection", "features": [ {"type": "Feature", "properties": {"norad_id": 43437, "name": "SENTINEL-3B", "group": "resource", "lat": 54.25132705396948, "lon": 44.921068462010844, "alt_km": 796.6125510568263, "timestamp": "2025-12-17T23:38:06.520736+00:00", "meta": {"OBJECT_NAME": "SENTINEL-3B", "OBJECT_ID": "2018-039A", "EPOCH": "2025-12-17T14:57:42.814944", "MEAN_MOTION": 14.26735878, "ECCENTRICITY": 0.00016257, "INCLINATION": 98.6263, "RA_OF_ASC_NODE": 56.7387, "ARG_OF_PERICENTER": 96.7967, "MEAN_ANOMALY": 263.3398, "EPHEMERIS_TYPE": 0, "CLASSIFICATION_TYPE": "U", "NORAD_CAT_ID": 43437, "ELEMENT_SET_NO": 999, "REV_AT_EPOCH": 39823, "BSTAR": 6.8126209e-05, "MEAN_MOTION_DOT": 1.21e-06, "MEAN_MOTION_DDOT": 0}, "tle": {"line1": "1 43437U 18039A   25351.62341221  .00000121  00000+0  68126-4 0  9999", "line2": "2 43437  98.6263  56.7387 0001625  96.7967 263.3398 14.26735878398231"}}, "geometry": {"type": "Point", "coordinates": [44.921068462010844, 54.25132705396948]}}, {"type": "Feature", "properties": {"norad_id": 43461, "name": "GAOFEN-5 01", "group": "resource", "lat": -40.251494896568694, "lon": -37.741089593848145, "alt_km": 697.8806060773768, "timestamp": "2025-12-17T23:38:06.520747+00:00", "meta": {"OBJECT_NAME": "GAOFEN-5 01", "OBJECT_ID": "2018-043A", "EPOCH": "2025-12-17T12:18:40.144032", "MEAN_MOTION": 14.60415021, "ECCENTRICITY": 6.641e-05, "INCLINATION": 98.433, "RA_OF_ASC_NODE": 314.5636, "ARG_OF_PERICENTER": 316.2032, "MEAN_ANOMALY": 43.9115, "EPHEMERIS_TYPE": 0, "CLASSIFICATION_TYPE": "U", "NORAD_CAT_ID": 43461, "ELEMENT_SET_NO": 999, "REV_AT_EPOCH": 40517, "BSTAR": 8.9013114e-05, "MEAN_MOTION_DOT": 3.82e-06, "MEAN_MOTION_DDOT": 0}, "tle": {"line1": "1 43461U 18043A   25351.51296463  .00000382  00000+0  89013-4 0  9993", "line2": "2 43461  98.4330 314.5636 0000664 316.2032  43.9115 14.60415021405172"}}, "geometry": {"type": "Point", "coordinates": [-37.741089593848145, -40.251494896568694]}}, {"type": "Feature", "properties": {"norad_id": 43484, "name": "GAOFEN-6", "group": "resource", "lat": -76.63883084445938, "lon": -159.18841269631065, "alt_km": 655.3084196343434, "timestamp": "2025-12-17T23:38:06.520757+00:00", "meta": {"OBJECT_NAME": "GAOFEN-6", "OBJECT_ID": "2018-048A", "EPOCH": "2025-12-17T15:57:35.364096", "MEAN_MOTION": 14.76574096, "ECCENTRICITY": 0.00130035, "INCLINATION": 97.8031, "RA_OF_ASC_NODE": 55.7667, "ARG_OF_PERICENTER": 49.042, "MEAN_ANOMALY": 311.1913, "EPHEMERIS_TYPE": 0, "CLASSIFICATION_TYPE": "U", "NORAD_CAT_ID": 43484, "ELEMENT_SET_NO": 999, "REV_AT_EPOCH": 40660, "BSTAR": 4.6965566e-05, "MEAN_MOTION_DOT": 2.79e-06, "MEAN_MOTION_DDOT": 0}, "tle": {"line1": "1 43484U 18048A   25351.66499264  .00000279  00000+0  46966-4 0  9998", "line2": "2 43484  97.8031  55.7667 0013003  49.0420 311.1913 14.76574096406609"}}, "geometry": {"type": "Point", "coordinates": [-159.18841269631065, -76.63883084445938]}}, {"type": "Feature", "properties": {"norad_id": 43585, "name": "GAOFEN-11 01", "group": "resource", "lat": -3.3832776317551865, "lon": 55.30135763237014, "alt_km": 421.10055389480203, "timestamp": "2025-12-17T23:38:06.520767+00:00", "meta": {"OBJECT_NAME": "GAOFEN-11 01", "OBJECT_ID": "2018-063A", "EPOCH": "2025-12-17T15:53:58.526880", "MEAN_MOTION": 15.49358517, "ECCENTRICITY": 0.00041182, "INCLINATION": 97.1558, "RA_OF_ASC_NODE": 54.5561, "ARG_OF_PERICENTER": 289.7872, "MEAN_ANOMALY": 70.2935, "EPHEMERIS_TYPE": 0, "CLASSIFICATION_TYPE": "U", "NORAD_CAT_ID": 43585, "ELEMENT_SET_NO": 999, "REV_AT_EPOCH": 41218, "BSTAR": 0.00023044241, "MEAN_MOTION_DOT": 0.00012542, "MEAN_MOTION_DDOT": 0}, "tle": {"line1": "1 43585U 18063A   25351.66248295  .00012542  00000+0  23044-3 0  9990", "line2": "2 43585  97.1558  54.5561 0004118 289.7872  70.2935 15.49358517412185"}}, "geometry": {"type": "Point", "coordinates": [55.30135763237014, -3.3832776317551865]}}, {"type": "Feature", "properties": {"norad_id": 43613, "name": "ICESAT-2", "group": "resource", "lat": 55.04602838309337, "lon": -120.72047279539515, "alt_km": 475.3483670883443, "timestamp": "2025-12-17T23:38:06.520777+00:00", "meta": {"OBJECT_NAME": "ICESAT-2", "OBJECT_ID": "2018-070A", "EPOCH": "2025-12-17T15:32:14.714592", "MEAN_MOTION": 15.28275669, "ECCENTRICITY": 0.0002724, "INCLINATION": 92.0052, "RA_OF_ASC_NODE": 242.0615, "ARG_OF_PERICENTER": 130.5122, "MEAN_ANOMALY": 229.6365, "EPHEMERIS_TYPE": 0, "CLASSIFICATION_TYPE": "U", "NORAD_CAT_ID": 43613, "ELEMENT_SET_NO": 999, "REV_AT_EPOCH": 40473, "BSTAR": 0.00037466427, "MEAN_MOTION_DOT": 0.00010319, "MEAN_MOTION_DDOT": 0}, "tle": {"line1": "1 43613U 18070A   25351.64739253  .00010319  00000+0  37466-3 0  9990", "line2": "2 43613  92.0052 242.0615 0002724 130.5122 229.6365 15.28275669404738"}}, "geometry": {"type": "Point", "coordinates": [-120.72047279539515, 55.04602838309337]}}, {"type": "Feature", "properties": {"norad_id": 43719, "name": "HYSIS", "group": "resource", "lat": -26.011059935439086, "lon": 58.87703550223617, "alt_km": 639.0698031321635, "timestamp": "2025-12-17T23:38:06.520787+00:00", "meta": {"OBJECT_NAME": "HYSIS", "OBJECT_ID": "2018-096A", "EPOCH": "2025-12-17T15:38:00.115008", "MEAN_MOTION": 14.78657804, "ECCENTRICITY": 0.00011679, "INCLINATION": 98.0098, "RA_OF_ASC_NODE": 54.6053, "ARG_OF_PERICENTER": 51.6351, "MEAN_ANOMALY": 308.4964, "EPHEMERIS_TYPE": 0, "CLASSIFICATION_TYPE": "U", "NORAD_CAT_ID": 43719, "ELEMENT_SET_NO": 999, "REV_AT_EPOCH": 38059, "BSTAR": 8.3999885e-05, "MEAN_MOTION_DOT": 5.63e-06, "MEAN_MOTION_DDOT": 0}, "tle": {"line1": "1 43719U 18096A   25351.65139022  .00000563  00000+0  84000-4 0  9991", "line2": "2 43719  98.0098  54.6053 0001167  51.6351 308.4964 14.78657804380598"}}, "geometry": {"type": "Point", "coordinates": [58.87703550223617, -26.011059935439086]}}, {"type": "Feature", "properties": {"norad_id": 43783, "name": "KAZSTSAT", "group": "resource", "lat": -59.35556737301512, "lon": -165.823030052484, "alt_km": 574.4298955428712, "timestamp": "2025-12-17T23:38:06.520797+00:00", "meta": {"OBJECT_NAME": "KAZSTSAT", "OBJECT_ID": "2018-099AB", "EPOCH": "2025-12-17T14:33:30.275424", "MEAN_MOTION": 14.99362058, "ECCENTRICITY": 0.00059101, "INCLINATION": 97.4541, "RA_OF_ASC_NODE": 26.5825, "ARG_OF_PERICENTER": 308.6143, "MEAN_ANOMALY": 51.4551, "EPHEMERIS_TYPE": 0, "CLASSIFICATION_TYPE": "U", "NORAD_CAT_ID": 43783, "ELEMENT_SET_NO": 999, "REV_AT_EPOCH": 38409, "BSTAR": 4.7093111e-05, "MEAN_MOTION_DOT": 5.2e-06, "MEAN_MOTION_DDOT": 0}, "tle": {"line1": "1 43783U 18099AB  25351.60660041  .00000520  00000+0  47093-4 0  9994", "line2": "2 43783  97.4541  26.5825 0005910 308.6143  51.4551 14.99362058384097"}}, "geometry": {"type": "Point", "coordinates": [-165.823030052484, -59.35556737301512]}}, {"type": "Feature", "properties": {"norad_id": 43831, "name": "SAUDISAT 5A", "group": "resource", "lat": 68.10699366454278, "lon": 33.37810042363408, "alt_km": 474.1964177208447, "timestamp": "2025-12-17T23:38:06.520807+00:00", "meta": {"OBJECT_NAME": "SAUDISAT 5A", "OBJECT_ID": "2018-102A", "EPOCH": "2025-12-17T15:27:46.192896", "MEAN_MOTION": 15.25717325, "ECCENTRICITY": 0.00115504, "INCLINATION": 97.3353, "RA_OF_ASC_NODE": 51.741, "ARG_OF_PERICENTER": 61.1614, "MEAN_ANOMALY": 299.0782, "EPHEMERIS_TYPE": 0, "CLASSIFICATION_TYPE": "U", "NORAD_CAT_ID": 43831, "ELEMENT_SET_NO": 999, "REV_AT_EPOCH": 38797, "BSTAR": 0.00020666847, "MEAN_MOTION_DOT": 5.206e-05, "MEAN_MOTION_DDOT": 0}, "tle": {"line1": "1 43831U 18102A   25351.64428464  .00005206  00000+0  20667-3 0  9991", "line2": "2 43831  97.3353  51.7410 0011550  61.1614 299.0782 15.25717325387979"}}, "geometry": {"type": "Point", "coordinates": [33.37810042363408, 68.10699366454278]}}, {"type": "Feature", "properties": {"norad_id": 43833, "name": "SAUDISAT 5B", "group": "resource", "lat": 51.01101046908087, "lon": -116.00789121218031, "alt_km": 479.5166360881067, "timestamp": "2025-12-17T23:38:06.520817+00:00", "meta": {"OBJECT_NAME": "SAUDISAT 5B", "OBJECT_ID": "2018-102C", "EPOCH": "2025-12-17T15:12:26.745696", "MEAN_MOTION": 15.26067267, "ECCENTRICITY": 0.00122784, "INCLINATION": 97.3448, "RA_OF_ASC_NODE": 54.4779, "ARG_OF_PERICENTER": 63.3367, "MEAN_ANOMALY": 296.9127, "EPHEMERIS_TYPE": 0, "CLASSIFICATION_TYPE": "U", "NORAD_CAT_ID": 43833, "ELEMENT_SET_NO": 999, "REV_AT_EPOCH": 38808, "BSTAR": 0.00018491708, "MEAN_MOTION_DOT": 4.701e-05, "MEAN_MOTION_DDOT": 0}, "tle": {"line1": "1 43833U 18102C   25351.63364289  .00004701  00000+0  18492-3 0  9998", "line2": "2 43833  97.3448  54.4779 0012278  63.3367 296.9127 15.26067267388087"}}, "geometry": {"type": "Point", "coordinates": [-116.00789121218031, 51.01101046908087]}}, {"type": "Feature", "properties": {"norad_id": 44622, "name": "GAOFEN-10R", "group": "resource", "lat": -23.480936033300146, "lon": -56.97333095253265, "alt_km": 622.5895234660684, "timestamp": "2025-12-17T23:38:06.520827+00:00", "meta": {"OBJECT_NAME": "GAOFEN-10R", "OBJECT_ID": "2019-066A", "EPOCH": "2025-12-17T15:38:38.838624", "MEAN_MOTION": 14.82808894, "ECCENTRICITY": 0.00075508, "INCLINATION": 98.0283, "RA_OF_ASC_NODE": 299.1772, "ARG_OF_PERICENTER": 27.6942, "MEAN_ANOMALY": 332.4671, "EPHEMERIS_TYPE": 0, "CLASSIFICATION_TYPE": "U", "NORAD_CAT_ID": 44622, "ELEMENT_SET_NO": 999, "REV_AT_EPOCH": 33547, "BSTAR": 0.00017318056, "MEAN_MOTION_DOT": 1.347e-05, "MEAN_MOTION_DDOT": 0}, "tle": {"line1": "1 44622U 19066A   25351.65183841  .00001347  00000+0  17318-3 0  9999", "line2": "2 44622  98.0283 299.1772 0007550  27.6942 332.4671 14.82808894335474"}}, "geometry": {"type": "Point", "coordinates": [-56.97333095253265, -23.480936033300146]}}]}